FENGYUN 1C DEB          
1 30317U 99025AAE 17345.96798911  .00000149  00000-0  11795-3 0  9999
2 30317  98.9704  11.4542 0025538 190.0495 286.4100 14.05747043559398
